OBJECT_NAME,OBJECT_ID,EPOCH,MEAN_MOTION,ECCENTRICITY,INCLINATION,RA_OF_ASC_NODE,ARG_OF_PERICENTER,MEAN_ANOMALY,EPHEMERIS_TYPE,CLASSIFICATION_TYPE,NORAD_CAT_ID,ELEMENT_SET_NO,REV_AT_EPOCH,BSTAR,MEAN_MOTION_DOT,MEAN_MOTION_DDOT
ANGOSAT 2,2022-131A,2026-06-28T07:26:07.829376,1.00270656,.00005928,0.0204,88.3482,25.5456,297.0411,0,U,54033,999,1358,0,.147E-5,0
EUTELSAT HOTBIRD 13F,2022-134A,2026-06-28T15:56:25.063008,1.00272059,.00019359,0.0498,292.7127,74.1450,162.0294,0,U,54048,999,1349,0,.99E-6,0
LDPE-2,2022-144A,2026-06-28T12:43:46.454592,1.00538506,.00021449,5.6394,63.5615,92.9180,164.3666,0,U,54219,999,1195,0,.111E-5,0
EUTELSAT HOTBIRD 13G,2022-146A,2026-06-28T01:08:38.713920,1.00271748,.00022774,0.0554,207.3682,325.6282,133.3100,0,U,54225,999,757,0,.99E-6,0
ZHONGXING-19,2022-148A,2026-06-28T21:47:20.630688,1.00272799,.00029069,0.0365,79.9641,35.7938,291.2878,0,U,54230,999,1349,0,-.7E-6,0
GALAXY 31 (G-31),2022-153A,2026-06-28T18:32:18.305376,1.00270265,.00016382,0.0228,42.3796,52.7564,338.7992,0,U,54243,999,724,0,0,0
GALAXY 32 (G-32),2022-153B,2026-06-28T16:39:41.019264,1.00270635,.00020143,0.0113,11.5139,37.2507,26.9432,0,U,54244,999,1325,0,-.163E-5,0
EUTELSAT 10B,2022-157A,2026-06-28T20:36:38.649024,1.00269895,.00022276,0.0633,96.5180,11.1378,128.4225,0,U,54259,999,1314,0,.79E-6,0
GALAXY 35 (G-35),2022-170A,2026-06-28T22:16:53.452416,1.00269099,.00022056,0.0218,32.6861,65.2680,60.1742,0,U,54741,999,1301,0,0,0
GALAXY 36 (G-36),2022-170B,2026-06-28T22:18:08.331840,1.00271383,.00029018,0.0162,270.1545,181.1496,71.2493,0,U,54742,999,1289,0,-.174E-5,0
METEOSAT-12 (MTG-I1),2022-170C,2026-06-28T22:43:27.528960,1.00275817,.00036884,0.7510,24.8222,72.6401,160.1379,0,U,54743,999,1309,0,.4E-7,0
SHIJIAN-23 (SJ-23),2023-002A,2026-06-28T18:36:39.064032,1.00085154,.000365,3.7462,78.1751,279.9009,338.3384,0,U,55131,999,1262,0,-.295E-5,0
APSTAR-6E,2023-005A,2026-06-28T21:39:06.420096,1.00268712,.00004824,0.0450,240.4484,288.7986,206.5240,0,U,55239,999,1880,0,-.307E-5,0
USA 342,2023-008A,2026-06-27T17:55:22.293120,1.00269221,.0000542,0.0068,21.1845,140.6398,46.7067,0,U,55263,999,1262,0,0,0
LDPE-3A,2023-008B,2026-06-28T18:33:45.605664,0.99149501,.000154,2.3770,81.5320,52.6132,265.2053,0,U,55264,999,1192,0,.16E-6,0
ELEKTRO-L 4,2023-016A,2026-06-28T18:29:25.767168,1.00271521,.00010157,0.0866,146.0209,36.9166,177.0575,0,U,55506,999,1244,0,-.47E-6,0
AMAZONAS NEXUS,2023-017A,2026-06-28T20:43:26.920992,1.00276353,.00048543,0.0347,36.3511,37.5671,92.9046,0,U,55508,999,716,0,-.271E-5,0
ZHONGXING-26,2023-023A,2026-06-28T23:19:09.605280,1.00273595,.00034056,0.0643,69.8235,25.5223,296.6390,0,U,55686,999,1234,0,-.342E-5,0
LUCH-5X (OLYMP-K 2),2023-031A,2026-06-28T17:43:38.629920,1.00272194,.0001129,0.0320,84.8797,156.7270,3.1066,0,U,55841,999,1205,0,.45E-6,0
GAOFEN-13 02,2023-036A,2026-06-28T17:59:52.460736,1.00268953,.00036632,1.0225,2.5600,339.3923,353.0772,0,U,55912,999,1220,0,-.208E-5,0
SES-18,2023-038A,2026-06-28T22:14:08.715264,1.00272242,.00006848,0.0311,284.8010,221.5254,1.1241,0,U,55970,999,1222,0,-.9E-6,0
SES-19,2023-038B,2026-06-28T16:57:03.189024,1.00273300,.0002015,0.0109,346.3443,113.4059,296.4028,0,U,55971,999,1220,0,.99E-6,0
INTELSAT 40E (IS-40E),2023-052A,2026-06-28T20:34:50.247264,1.00269666,.00025453,0.0200,28.9406,99.6954,6.0280,0,U,56174,999,1194,0,0,0
VIASAT-3 F1,2023-060A,2026-06-28T22:18:08.331840,1.00268654,.00008912,0.0214,4.6787,104.9787,52.9104,0,U,56370,999,1155,0,0,0
ARCTURUS,2023-060B,2026-06-26T21:28:35.858208,1.00599177,.0000384,2.7990,79.8193,207.4908,27.3984,0,U,56371,999,1155,0,-.176E-5,0
GS-1,2023-060C,2026-06-28T18:36:47.430144,1.00271366,.00036576,2.7547,79.6994,279.7927,286.0267,0,U,56372,999,765,0,-.215E-5,0
BEIDOU-3 G4,2023-066A,2026-06-28T23:23:24.198432,1.00270376,.0004911,0.4740,334.4817,175.4323,258.0479,0,U,56564,999,1151,0,-.269E-5,0
ARABSAT-7B (BADR-8),2023-075A,2026-06-28T21:08:16.780128,1.00271703,.00040788,0.0760,30.6302,2.4338,226.9641,0,U,56757,999,1123,0,.156E-5,0
NVS-01 (IRNSS-1J),2023-076A,2026-06-28T23:20:24.485568,1.00273830,.00028154,2.1392,243.8137,10.7715,142.1395,0,U,56759,999,1123,0,-.322E-5,0
NUSANTARA TIGA (SATRIA),2023-086A,2026-06-28T21:42:28.596960,1.00269155,.00026438,0.0362,0.3943,345.0230,43.1976,0,U,57045,999,987,0,-.224E-5,0
H2SAT (HEINRICH HERTZ),2023-093A,2026-06-28T22:43:42.504672,1.00266150,.00013123,0.0353,101.7283,39.0645,117.8751,0,U,57213,999,1103,0,.12E-6,0
SYRACUSE 4B,2023-093B,2026-06-28T22:41:35.208096,1.00255165,.00010065,0.0269,33.7427,143.5541,73.6674,0,U,57214,999,708,0,0,0
