ANGOSAT 2               
1 54033U 22131A   26179.30981284  .00000147  00000+0  00000+0 0  9994
2 54033   0.0204  88.3482 0000592  25.5456 297.0411  1.00270656 13587
EUTELSAT HOTBIRD 13F    
1 54048U 22134A   26179.66417897  .00000099  00000+0  00000+0 0  9992
2 54048   0.0498 292.7127 0001935  74.1450 162.0294  1.00272059 13490
LDPE-2                  
1 54219U 22144A   26179.53039878  .00000111  00000+0  00000+0 0  9993
2 54219   5.6394  63.5615 0002144  92.9180 164.3666  1.00538506 11952
EUTELSAT HOTBIRD 13G    
1 54225U 22146A   26179.04767030  .00000099  00000+0  00000+0 0  9991
2 54225   0.0554 207.3682 0002277 325.6282 133.3100  1.00271748  7578
ZHONGXING-19            
1 54230U 22148A   26179.90787767 -.00000070  00000+0  00000+0 0  9993
2 54230   0.0365  79.9641 0002906  35.7938 291.2878  1.00272799 13499
GALAXY 31 (G-31)        
1 54243U 22153A   26179.77243409  .00000000  00000+0  00000+0 0  9990
2 54243   0.0228  42.3796 0001638  52.7564 338.7992  1.00270265  7247
GALAXY 32 (G-32)        
1 54244U 22153B   26179.69422476 -.00000163  00000+0  00000+0 0  9996
2 54244   0.0113  11.5139 0002014  37.2507  26.9432  1.00270635 13258
EUTELSAT 10B            
1 54259U 22157A   26179.85878066  .00000079  00000+0  00000+0 0  9999
2 54259   0.0633  96.5180 0002227  11.1378 128.4225  1.00269895 13145
GALAXY 35 (G-35)        
1 54741U 22170A   26179.92839644  .00000000  00000+0  00000+0 0  9991
2 54741   0.0218  32.6861 0002205  65.2680  60.1742  1.00269099 13017
GALAXY 36 (G-36)        
1 54742U 22170B   26179.92926310 -.00000174  00000+0  00000+0 0  9992
2 54742   0.0162 270.1545 0002901 181.1496  71.2493  1.00271383 12890
METEOSAT-12 (MTG-I1)    
1 54743U 22170C   26179.94684640  .00000004  00000+0  00000+0 0  9993
2 54743   0.7510  24.8222 0003688  72.6401 160.1379  1.00275817 13094
SHIJIAN-23 (SJ-23)      
1 55131U 23002A   26179.77545213 -.00000295  00000+0  00000+0 0  9996
2 55131   3.7462  78.1751 0003650 279.9009 338.3384  1.00085154 12625
APSTAR-6E               
1 55239U 23005A   26179.90215764 -.00000307  00000+0  00000+0 0  9992
2 55239   0.0450 240.4484 0000482 288.7986 206.5240  1.00268712 18806
USA 342                 
1 55263U 23008A   26178.74678580  .00000000  00000+0  00000+0 0  9991
2 55263   0.0068  21.1845 0000542 140.6398  46.7067  1.00269221 12624
LDPE-3A                 
1 55264U 23008B   26179.77344451  .00000016  00000+0  00000+0 0  9990
2 55264   2.3770  81.5320 0001540  52.6132 265.2053  0.99149501 11925
ELEKTRO-L 4             
1 55506U 23016A   26179.77043712 -.00000047  00000+0  00000+0 0  9999
2 55506   0.0866 146.0209 0001015  36.9166 177.0575  1.00271521 12445
AMAZONAS NEXUS          
1 55508U 23017A   26179.86350603 -.00000271  00000+0  00000+0 0  9991
2 55508   0.0347  36.3511 0004854  37.5671  92.9046  1.00276353  7169
ZHONGXING-26            
1 55686U 23023A   26179.97163895 -.00000342  00000+0  00000+0 0  9991
2 55686   0.0643  69.8235 0003405  25.5223 296.6390  1.00273595 12346
LUCH-5X (OLYMP-K 2)     
1 55841U 23031A   26179.73864155  .00000045  00000+0  00000+0 0  9993
2 55841   0.0320  84.8797 0001129 156.7270   3.1066  1.00272194 12054
GAOFEN-13 02            
1 55912U 23036A   26179.74991274 -.00000208  00000+0  00000+0 0  9993
2 55912   1.0225   2.5600 0003663 339.3923 353.0772  1.00268953 12203
SES-18                  
1 55970U 23038A   26179.92648976 -.00000090  00000+0  00000+0 0  9996
2 55970   0.0311 284.8010 0000684 221.5254   1.1241  1.00272242 12221
SES-19                  
1 55971U 23038B   26179.70628691  .00000099  00000+0  00000+0 0  9993
2 55971   0.0109 346.3443 0002015 113.4059 296.4028  1.00273300 12209
INTELSAT 40E (IS-40E)   
1 56174U 23052A   26179.85752601  .00000000  00000+0  00000+0 0  9992
2 56174   0.0200  28.9406 0002545  99.6954   6.0280  1.00269666 11941
VIASAT-3 F1             
1 56370U 23060A   26179.92926310  .00000000  00000+0  00000+0 0  9997
2 56370   0.0214   4.6787 0000891 104.9787  52.9104  1.00268654 11551
ARCTURUS                
1 56371U 23060B   26177.89485947 -.00000176  00000+0  00000+0 0  9993
2 56371   2.7990  79.8193 0000384 207.4908  27.3984  1.00599177 11557
GS-1                    
1 56372U 23060C   26179.77554896 -.00000215  00000+0  00000+0 0  9997
2 56372   2.7547  79.6994 0003657 279.7927 286.0267  1.00271366  7653
BEIDOU-3 G4             
1 56564U 23066A   26179.97458563 -.00000269  00000+0  00000+0 0  9991
2 56564   0.4740 334.4817 0004911 175.4323 258.0479  1.00270376 11512
ARABSAT-7B (BADR-8)     
1 56757U 23075A   26179.88074977  .00000156  00000+0  00000+0 0  9992
2 56757   0.0760  30.6302 0004078   2.4338 226.9641  1.00271703 11236
NVS-01 (IRNSS-1J)       
1 56759U 23076A   26179.97250562 -.00000322  00000+0  00000+0 0  9997
2 56759   2.1392 243.8137 0002815  10.7715 142.1395  1.00273830 11232
NUSANTARA TIGA (SATRIA) 
1 57045U 23086A   26179.90449765 -.00000224  00000+0  00000+0 0  9996
2 57045   0.0362   0.3943 0002643 345.0230  43.1976  1.00269155  9878
H2SAT (HEINRICH HERTZ)  
1 57213U 23093A   26179.94701973  .00000012  00000+0  00000+0 0  9991
2 57213   0.0353 101.7283 0001312  39.0645 117.8751  1.00266150 11033
SYRACUSE 4B             
1 57214U 23093B   26179.94554639  .00000000  00000+0  00000+0 0  9994
2 57214   0.0269  33.7427 0001006 143.5541  73.6674  1.00255165  7087
